<?xml version="1.0" encoding="UTF-8"?>
<ndm xmlns:xsi="http://www.w3.org/2001/XMLSchema-instance" xsi:noNamespaceSchemaLocation="https://sanaregistry.org/r/ndmxml_unqualified/ndmxml-2.0.0-master-2.0.xsd">
<omm id="CCSDS_OMM_VERS" version="2.0">
<header><CREATION_DATE/><ORIGINATOR/></header><body><segment><metadata><OBJECT_NAME>ORBCOMM FM24</OBJECT_NAME><OBJECT_ID>1998-053D</OBJECT_ID><CENTER_NAME>EARTH</CENTER_NAME><REF_FRAME>TEME</REF_FRAME><TIME_SYSTEM>UTC</TIME_SYSTEM><MEAN_ELEMENT_THEORY>SGP4</MEAN_ELEMENT_THEORY></metadata><data><meanElements><EPOCH>2025-09-04T10:15:24.888096</EPOCH><MEAN_MOTION>14.38266947</MEAN_MOTION><ECCENTRICITY>.00047195</ECCENTRICITY><INCLINATION>45.0061</INCLINATION><RA_OF_ASC_NODE>253.3403</RA_OF_ASC_NODE><ARG_OF_PERICENTER>273.0133</ARG_OF_PERICENTER><MEAN_ANOMALY>87.0175</MEAN_ANOMALY></meanElements><tleParameters><EPHEMERIS_TYPE>0</EPHEMERIS_TYPE><CLASSIFICATION_TYPE>U</CLASSIFICATION_TYPE><NORAD_CAT_ID>25478</NORAD_CAT_ID><ELEMENT_SET_NO>999</ELEMENT_SET_NO><REV_AT_EPOCH>40885</REV_AT_EPOCH><BSTAR>.65792413E-3</BSTAR><MEAN_MOTION_DOT>.1878E-4</MEAN_MOTION_DOT><MEAN_MOTION_DDOT>0</MEAN_MOTION_DDOT></tleParameters></data></segment></body></omm>
<omm id="CCSDS_OMM_VERS" version="2.0">
<header><CREATION_DATE/><ORIGINATOR/></header><body><segment><metadata><OBJECT_NAME>ORBCOMM FM25</OBJECT_NAME><OBJECT_ID>1998-053E</OBJECT_ID><CENTER_NAME>EARTH</CENTER_NAME><REF_FRAME>TEME</REF_FRAME><TIME_SYSTEM>UTC</TIME_SYSTEM><MEAN_ELEMENT_THEORY>SGP4</MEAN_ELEMENT_THEORY></metadata><data><meanElements><EPOCH>2025-09-04T09:36:23.628672</EPOCH><MEAN_MOTION>14.38236000</MEAN_MOTION><ECCENTRICITY>.0006986</ECCENTRICITY><INCLINATION>45.0061</INCLINATION><RA_OF_ASC_NODE>251.7504</RA_OF_ASC_NODE><ARG_OF_PERICENTER>280.7289</ARG_OF_PERICENTER><MEAN_ANOMALY>79.2772</MEAN_ANOMALY></meanElements><tleParameters><EPHEMERIS_TYPE>0</EPHEMERIS_TYPE><CLASSIFICATION_TYPE>U</CLASSIFICATION_TYPE><NORAD_CAT_ID>25479</NORAD_CAT_ID><ELEMENT_SET_NO>999</ELEMENT_SET_NO><REV_AT_EPOCH>40914</REV_AT_EPOCH><BSTAR>.59098608E-3</BSTAR><MEAN_MOTION_DOT>.1671E-4</MEAN_MOTION_DOT><MEAN_MOTION_DDOT>0</MEAN_MOTION_DDOT></tleParameters></data></segment></body></omm>
<omm id="CCSDS_OMM_VERS" version="2.0">
<header><CREATION_DATE/><ORIGINATOR/></header><body><segment><metadata><OBJECT_NAME>ORBCOMM FM26</OBJECT_NAME><OBJECT_ID>1998-053F</OBJECT_ID><CENTER_NAME>EARTH</CENTER_NAME><REF_FRAME>TEME</REF_FRAME><TIME_SYSTEM>UTC</TIME_SYSTEM><MEAN_ELEMENT_THEORY>SGP4</MEAN_ELEMENT_THEORY></metadata><data><meanElements><EPOCH>2025-09-04T09:28:23.531520</EPOCH><MEAN_MOTION>14.37270670</MEAN_MOTION><ECCENTRICITY>.00086023</ECCENTRICITY><INCLINATION>45.0057</INCLINATION><RA_OF_ASC_NODE>248.8114</RA_OF_ASC_NODE><ARG_OF_PERICENTER>294.1272</ARG_OF_PERICENTER><MEAN_ANOMALY>65.8676</MEAN_ANOMALY></meanElements><tleParameters><EPHEMERIS_TYPE>0</EPHEMERIS_TYPE><CLASSIFICATION_TYPE>U</CLASSIFICATION_TYPE><NORAD_CAT_ID>25480</NORAD_CAT_ID><ELEMENT_SET_NO>999</ELEMENT_SET_NO><REV_AT_EPOCH>40904</REV_AT_EPOCH><BSTAR>.56228977E-3</BSTAR><MEAN_MOTION_DOT>.155E-4</MEAN_MOTION_DOT><MEAN_MOTION_DDOT>0</MEAN_MOTION_DDOT></tleParameters></data></segment></body></omm>
<omm id="CCSDS_OMM_VERS" version="2.0">
<header><CREATION_DATE/><ORIGINATOR/></header><body><segment><metadata><OBJECT_NAME>ORBCOMM FM27</OBJECT_NAME><OBJECT_ID>1998-053G</OBJECT_ID><CENTER_NAME>EARTH</CENTER_NAME><REF_FRAME>TEME</REF_FRAME><TIME_SYSTEM>UTC</TIME_SYSTEM><MEAN_ELEMENT_THEORY>SGP4</MEAN_ELEMENT_THEORY></metadata><data><meanElements><EPOCH>2025-09-04T09:16:13.661472</EPOCH><MEAN_MOTION>14.38268752</MEAN_MOTION><ECCENTRICITY>.00032604</ECCENTRICITY><INCLINATION>45.0045</INCLINATION><RA_OF_ASC_NODE>251.9902</RA_OF_ASC_NODE><ARG_OF_PERICENTER>279.2571</ARG_OF_PERICENTER><MEAN_ANOMALY>80.7909</MEAN_ANOMALY></meanElements><tleParameters><EPHEMERIS_TYPE>0</EPHEMERIS_TYPE><CLASSIFICATION_TYPE>U</CLASSIFICATION_TYPE><NORAD_CAT_ID>25481</NORAD_CAT_ID><ELEMENT_SET_NO>999</ELEMENT_SET_NO><REV_AT_EPOCH>40907</REV_AT_EPOCH><BSTAR>.62976533E-3</BSTAR><MEAN_MOTION_DOT>.1791E-4</MEAN_MOTION_DOT><MEAN_MOTION_DDOT>0</MEAN_MOTION_DDOT></tleParameters></data></segment></body></omm>
<omm id="CCSDS_OMM_VERS" version="2.0">
<header><CREATION_DATE/><ORIGINATOR/></header><body><segment><metadata><OBJECT_NAME>ORBCOMM FM28</OBJECT_NAME><OBJECT_ID>1998-053H</OBJECT_ID><CENTER_NAME>EARTH</CENTER_NAME><REF_FRAME>TEME</REF_FRAME><TIME_SYSTEM>UTC</TIME_SYSTEM><MEAN_ELEMENT_THEORY>SGP4</MEAN_ELEMENT_THEORY></metadata><data><meanElements><EPOCH>2025-09-04T13:16:11.381664</EPOCH><MEAN_MOTION>14.38441865</MEAN_MOTION><ECCENTRICITY>.00064685</ECCENTRICITY><INCLINATION>45.0038</INCLINATION><RA_OF_ASC_NODE>188.5897</RA_OF_ASC_NODE><ARG_OF_PERICENTER>331.3294</ARG_OF_PERICENTER><MEAN_ANOMALY>28.7198</MEAN_ANOMALY></meanElements><tleParameters><EPHEMERIS_TYPE>0</EPHEMERIS_TYPE><CLASSIFICATION_TYPE>U</CLASSIFICATION_TYPE><NORAD_CAT_ID>25482</NORAD_CAT_ID><ELEMENT_SET_NO>999</ELEMENT_SET_NO><REV_AT_EPOCH>40978</REV_AT_EPOCH><BSTAR>.68658389E-3</BSTAR><MEAN_MOTION_DOT>.1973E-4</MEAN_MOTION_DOT><MEAN_MOTION_DDOT>0</MEAN_MOTION_DDOT></tleParameters></data></segment></body></omm>
<omm id="CCSDS_OMM_VERS" version="2.0">
<header><CREATION_DATE/><ORIGINATOR/></header><body><segment><metadata><OBJECT_NAME>ORBCOMM FM30</OBJECT_NAME><OBJECT_ID>1999-065A</OBJECT_ID><CENTER_NAME>EARTH</CENTER_NAME><REF_FRAME>TEME</REF_FRAME><TIME_SYSTEM>UTC</TIME_SYSTEM><MEAN_ELEMENT_THEORY>SGP4</MEAN_ELEMENT_THEORY></metadata><data><meanElements><EPOCH>2025-09-04T05:40:49.843200</EPOCH><MEAN_MOTION>14.37440145</MEAN_MOTION><ECCENTRICITY>.00066831</ECCENTRICITY><INCLINATION>45.0314</INCLINATION><RA_OF_ASC_NODE>75.5096</RA_OF_ASC_NODE><ARG_OF_PERICENTER>50.0511</ARG_OF_PERICENTER><MEAN_ANOMALY>310.0924</MEAN_ANOMALY></meanElements><tleParameters><EPHEMERIS_TYPE>0</EPHEMERIS_TYPE><CLASSIFICATION_TYPE>U</CLASSIFICATION_TYPE><NORAD_CAT_ID>25980</NORAD_CAT_ID><ELEMENT_SET_NO>999</ELEMENT_SET_NO><REV_AT_EPOCH>34582</REV_AT_EPOCH><BSTAR>.61428879E-3</BSTAR><MEAN_MOTION_DOT>.1712E-4</MEAN_MOTION_DOT><MEAN_MOTION_DDOT>0</MEAN_MOTION_DDOT></tleParameters></data></segment></body></omm>
<omm id="CCSDS_OMM_VERS" version="2.0">
<header><CREATION_DATE/><ORIGINATOR/></header><body><segment><metadata><OBJECT_NAME>ORBCOMM FM31</OBJECT_NAME><OBJECT_ID>1999-065B</OBJECT_ID><CENTER_NAME>EARTH</CENTER_NAME><REF_FRAME>TEME</REF_FRAME><TIME_SYSTEM>UTC</TIME_SYSTEM><MEAN_ELEMENT_THEORY>SGP4</MEAN_ELEMENT_THEORY></metadata><data><meanElements><EPOCH>2025-09-04T11:47:37.810176</EPOCH><MEAN_MOTION>14.37372798</MEAN_MOTION><ECCENTRICITY>.00042552</ECCENTRICITY><INCLINATION>45.0228</INCLINATION><RA_OF_ASC_NODE>67.7738</RA_OF_ASC_NODE><ARG_OF_PERICENTER>80.0245</ARG_OF_PERICENTER><MEAN_ANOMALY>280.1084</MEAN_ANOMALY></meanElements><tleParameters><EPHEMERIS_TYPE>0</EPHEMERIS_TYPE><CLASSIFICATION_TYPE>U</CLASSIFICATION_TYPE><NORAD_CAT_ID>25981</NORAD_CAT_ID><ELEMENT_SET_NO>999</ELEMENT_SET_NO><REV_AT_EPOCH>34541</REV_AT_EPOCH><BSTAR>.53390306E-3</BSTAR><MEAN_MOTION_DOT>.1467E-4</MEAN_MOTION_DOT><MEAN_MOTION_DDOT>0</MEAN_MOTION_DDOT></tleParameters></data></segment></body></omm>
<omm id="CCSDS_OMM_VERS" version="2.0">
<header><CREATION_DATE/><ORIGINATOR/></header><body><segment><metadata><OBJECT_NAME>ORBCOMM FM32</OBJECT_NAME><OBJECT_ID>1999-065C</OBJECT_ID><CENTER_NAME>EARTH</CENTER_NAME><REF_FRAME>TEME</REF_FRAME><TIME_SYSTEM>UTC</TIME_SYSTEM><MEAN_ELEMENT_THEORY>SGP4</MEAN_ELEMENT_THEORY></metadata><data><meanElements><EPOCH>2025-09-04T20:51:00.573696</EPOCH><MEAN_MOTION>14.36426721</MEAN_MOTION><ECCENTRICITY>.00067142</ECCENTRICITY><INCLINATION>45.0154</INCLINATION><RA_OF_ASC_NODE>83.1015</RA_OF_ASC_NODE><ARG_OF_PERICENTER>71.5639</ARG_OF_PERICENTER><MEAN_ANOMALY>288.5938</MEAN_ANOMALY></meanElements><tleParameters><EPHEMERIS_TYPE>0</EPHEMERIS_TYPE><CLASSIFICATION_TYPE>U</CLASSIFICATION_TYPE><NORAD_CAT_ID>25982</NORAD_CAT_ID><ELEMENT_SET_NO>999</ELEMENT_SET_NO><REV_AT_EPOCH>34605</REV_AT_EPOCH><BSTAR>.5767269E-3</BSTAR><MEAN_MOTION_DOT>.1564E-4</MEAN_MOTION_DOT><MEAN_MOTION_DDOT>0</MEAN_MOTION_DDOT></tleParameters></data></segment></body></omm>

</ndm>
