ORBCOMM FM24            
1 25478U 98053D   25247.42737139  .00001878  00000+0  65792-3 0  9992
2 25478  45.0061 253.3403 0004719 273.0133  87.0175 14.38266947408857
ORBCOMM FM25            
1 25479U 98053E   25247.40027348  .00001671  00000+0  59099-3 0  9999
2 25479  45.0061 251.7504 0006986 280.7289  79.2772 14.38236000409143
ORBCOMM FM26            
1 25480U 98053F   25247.39471680  .00001550  00000+0  56229-3 0  9999
2 25480  45.0057 248.8114 0008602 294.1272  65.8676 14.37270670409045
ORBCOMM FM27            
1 25481U 98053G   25247.38626923  .00001791  00000+0  62977-3 0  9995
2 25481  45.0045 251.9902 0003260 279.2571  80.7909 14.38268752409071
ORBCOMM FM28            
1 25482U 98053H   25247.55290951  .00001973  00000+0  68658-3 0  9997
2 25482  45.0038 188.5897 0006468 331.3294  28.7198 14.38441865409785
ORBCOMM FM30            
1 25980U 99065A   25247.23668800  .00001712  00000+0  61429-3 0  9991
2 25980  45.0314  75.5096 0006683  50.0511 310.0924 14.37440145345824
ORBCOMM FM31            
1 25981U 99065B   25247.49140984  .00001467  00000+0  53390-3 0  9993
2 25981  45.0228  67.7738 0004255  80.0245 280.1084 14.37372798345412
ORBCOMM FM32            
1 25982U 99065C   25247.86875664  .00001564  00000+0  57673-3 0  9991
2 25982  45.0154  83.1015 0006714  71.5639 288.5938 14.36426721346051
